HAWKSAT1
1 35003U 09028C   10154.72621145  .00012410  00000-0  25643-3 0  3062
2 35003 040.4575 288.2012 0023055 283.9815 075.8440 15.45274976 58632
CP6
1 35004U 09028D   10154.73025951  .00014424  00000-0  28930-3 0  3022
2 35004 040.4644 287.3610 0022214 283.1378 076.6961 15.46071835 58633
AEROCUB3
1 35005U 09028E   10154.76306246  .00041993  00000-0  70273-3 0  3348
2 35005 040.4708 285.2867 0019431 290.1044 069.7683 15.50858624 58662
DRAGNSAT
1 35690U 09038B   10076.22711312  .05715194  12509-4  31481-3 0  3162
2 35690 051.6170 315.4586 0004999 310.9891 057.3269 16.42150010 36561
POLLUX
1 35693U 09038E   10087.99866888  .23496735  12787-4  17715-3 0  3529
2 35693 051.6099 254.5746 0006270 294.4866 097.5899 16.52338462 38395
CASTOR
1 35694U 09038F   10154.79145001  .00077248  13908-4  14728-3 0  4336
2 35694 051.6390 271.7726 0000622 212.6789 147.4146 16.00688054 48917
METEOR-M
1 35865U 09049A   10154.69329210  .00000176  00000-0  10000-3 0  3501
2 35865 098.7593 208.5881 0003407 051.5432 308.5993 14.21830343 36809
