Satellite: HAWKSAT1
Catalog number: 35003
Epoch time:      10154.72621145
Element set:     306
Inclination:      040.4575 deg
RA of node:       288.2012 deg
Eccentricity:    0.0023055
Arg of perigee:   283.9815 deg
Mean anomaly:     075.8440 deg
Mean motion:   15.45274976 rev/day
Decay rate:     1.2410e-04 rev/day^2
Epoch rev:            5863
Checksum:              274

Satellite: CP6
Catalog number: 35004
Epoch time:      10154.73025951
Element set:     302
Inclination:      040.4644 deg
RA of node:       287.3610 deg
Eccentricity:    0.0022214
Arg of perigee:   283.1378 deg
Mean anomaly:     076.6961 deg
Mean motion:   15.46071835 rev/day
Decay rate:     1.4424e-04 rev/day^2
Epoch rev:            5863
Checksum:              277

Satellite: AEROCUB3
Catalog number: 35005
Epoch time:      10154.76306246
Element set:     334
Inclination:      040.4708 deg
RA of node:       285.2867 deg
Eccentricity:    0.0019431
Arg of perigee:   290.1044 deg
Mean anomaly:     069.7683 deg
Mean motion:   15.50858624 rev/day
Decay rate:     4.1993e-04 rev/day^2
Epoch rev:            5866
Checksum:              311

Satellite: DRAGNSAT
Catalog number: 35690
Epoch time:      10076.22711312
Element set:     316
Inclination:      051.6170 deg
RA of node:       315.4586 deg
Eccentricity:    0.0004999
Arg of perigee:   310.9891 deg
Mean anomaly:     057.3269 deg
Mean motion:   16.42150010 rev/day
Decay rate:   5.715194e-02 rev/day^2
Epoch rev:            3656
Checksum:              289

Satellite: POLLUX
Catalog number: 35693
Epoch time:      10087.99866888
Element set:     352
Inclination:      051.6099 deg
RA of node:       254.5746 deg
Eccentricity:    0.0006270
Arg of perigee:   294.4866 deg
Mean anomaly:     097.5899 deg
Mean motion:   16.52338462 rev/day
Decay rate:  2.3496735e-01 rev/day^2
Epoch rev:            3839
Checksum:              384

Satellite: CASTOR
Catalog number: 35694
Epoch time:      10154.79145001
Element set:     433
Inclination:      051.6390 deg
RA of node:       271.7726 deg
Eccentricity:    0.0000622
Arg of perigee:   212.6789 deg
Mean anomaly:     147.4146 deg
Mean motion:   16.00688054 rev/day
Decay rate:     7.7248e-04 rev/day^2
Epoch rev:            4891
Checksum:              298

Satellite: METEOR-M
Catalog number: 35865
Epoch time:      10154.69329210
Element set:     350
Inclination:      098.7593 deg
RA of node:       208.5881 deg
Eccentricity:    0.0003407
Arg of perigee:   051.5432 deg
Mean anomaly:     308.5993 deg
Mean motion:   14.21830343 rev/day
Decay rate:       1.76e-06 rev/day^2
Epoch rev:            3680
Checksum:              292

